{
    "links": {
        "self": "http://www.neowsapp.com/rest/v1/neo/3627013?api_key=iIulBulltgU6a56xZRHN4H3l9WmuAYTsLGpBGhQ2"
    },
    "id": "3627013",
    "neo_reference_id": "3627013",
    "name": "(2013 DA)",
    "designation": "2013 DA",
    "nasa_jpl_url": "http://ssd.jpl.nasa.gov/sbdb.cgi?sstr=3627013",
    "absolute_magnitude_h": 23.9,
    "estimated_diameter": {
        "kilometers": {
            "estimated_diameter_min": 0.04411182,
            "estimated_diameter_max": 0.0986370281
        },
        "meters": {
            "estimated_diameter_min": 44.1118199997,
            "estimated_diameter_max": 98.6370281305
        },
        "miles": {
            "estimated_diameter_min": 0.0274098057,
            "estimated_diameter_max": 0.0612901888
        },
        "feet": {
            "estimated_diameter_min": 144.7238235278,
            "estimated_diameter_max": 323.6123073718
        }
    },
    "is_potentially_hazardous_asteroid": false,
    "close_approach_data": [
        {
            "close_approach_date": "1907-01-26",
            "close_approach_date_full": "1907-Jan-26 10:34",
            "epoch_date_close_approach": -1985952360000,
            "relative_velocity": {
                "kilometers_per_second": "12.2921027641",
                "kilometers_per_hour": "44251.5699507424",
                "miles_per_hour": "27496.2046730043"
            },
            "miss_distance": {
                "astronomical": "0.3640507942",
                "lunar": "141.6157589438",
                "kilometers": "54461223.384128354",
                "miles": "33840634.9998011252"
            },
            "orbiting_body": "Earth"
        },
        {
            "close_approach_date": "1912-02-10",
            "close_approach_date_full": "1912-Feb-10 22:00",
            "epoch_date_close_approach": -1826848800000,
            "relative_velocity": {
                "kilometers_per_second": "12.3864571753",
                "kilometers_per_hour": "44591.2458309666",
                "miles_per_hour": "27707.2660553581"
            },
            "miss_distance": {
                "astronomical": "0.0605263612",
                "lunar": "23.5447545068",
                "kilometers": "9054614.714370644",
                "miles": "5626276.6895931272"
            },
            "orbiting_body": "Earth"
        },
        {
            "close_approach_date": "2012-10-03",
            "close_approach_date_full": "2012-Oct-03 02:59",
            "epoch_date_close_approach": 1349233140000,
            "relative_velocity": {
                "kilometers_per_second": "9.85018601",
                "kilometers_per_hour": "35460.6696358438",
                "miles_per_hour": "22033.8810856719"
            },
            "miss_distance": {
                "astronomical": "0.3970417144",
                "lunar": "154.4492269016",
                "kilometers": "59396594.775388328",
                "miles": "36907332.5776738064"
            },
            "orbiting_body": "Earth"
        },
        {
            "close_approach_date": "2013-02-12",
            "close_approach_date_full": "2013-Feb-12 11:20",
            "epoch_date_close_approach": 1360668000000,
            "relative_velocity": {
                "kilometers_per_second": "13.0006873399",
                "kilometers_per_hour": "46802.4744237883",
                "miles_per_hour": "29081.2375107145"
            },
            "miss_distance": {
                "astronomical": "0.0586536136",
                "lunar": "22.8162556904",
                "kilometers": "8774455.662363032",
                "miles": "5452193.9270005616"
            },
            "orbiting_body": "Earth"
        }
    ],
    "orbital_data": {
        "orbit_id": "8",
        "orbit_determination_date": "2017-04-06 08:46:44",
        "first_observation_date": "2013-02-16",
        "last_observation_date": "2013-02-21",
        "data_arc_in_days": 5,
        "observations_used": 45,
        "orbit_uncertainty": "8",
        "minimum_orbit_intersection": ".0540422",
        "jupiter_tisserand_invariant": "4.602",
        "epoch_osculation": "2456341.5",
        "eccentricity": ".3157845395905363",
        "semi_major_axis": "1.415428166590282",
        "inclination": "20.77948904085484",
        "ascending_node_longitude": "146.2191265498026",
        "orbital_period": "615.0779771426883",
        "perihelion_distance": ".9684578346800931",
        "perihelion_argument": "313.0584337653619",
        "aphelion_distance": "1.862398498500472",
        "perihelion_time": "2456298.158614357059",
        "mean_anomaly": "25.36735082589233",
        "mean_motion": ".5852916433008392",
        "equinox": "J2000",
        "orbit_class": {
            "orbit_class_type": "APO",
            "orbit_class_description": "Near-Earth asteroid orbits which cross the Earth’s orbit similar to that of 1862 Apollo",
            "orbit_class_range": "a (semi-major axis) > 1.0 AU; q (perihelion) < 1.017 AU"
        }
    },
    "is_sentry_object": false
}